start=new Date('2022-02-14T00:00:00.000Z').valueOf();
sats=[{"REV_AT_EPOCH":"7287","PERIAPSIS":"546.142","TLE_LINE2":"2 46752  53.0528 147.5989 0001583  64.0671 296.0481 15.06392064 72873","EPHEMERIS_TYPE":"0","ARG_OF_PERICENTER":"64.0671","REF_FRAME":"TEME","OBJECT_TYPE":"PAYLOAD","MEAN_ANOMALY":"296.0481","MEAN_MOTION_DDOT":"0.0000000000000","MEAN_MOTION_DOT":"-0.00002471","OBJECT_NAME":"STARLINK-1921","APOAPSIS":"548.334","FILE":"3299809","MEAN_MOTION":"15.06392064","COUNTRY_CODE":"US","NORAD_CAT_ID":"46752","PERIOD":"95.593","OBJECT_ID":"2020-074P","SITE":"AFETR","CENTER_NAME":"EARTH","LAUNCH_DATE":"2020-10-24","MEAN_ELEMENT_THEORY":"SGP4","TLE_LINE1":"1 46752U 20074P   22044.78789693 -.00002471  00000-0 -14710-3 0  9998","RCS_SIZE":"LARGE","CLASSIFICATION_TYPE":"U","TIME_SYSTEM":"UTC","EPOCH":"2022-02-13T18:54:34.294752","BSTAR":"-0.00014710000000","ECCENTRICITY":"0.00015830","GP_ID":"195900498","DECAY_DATE":null,"INCLINATION":"53.0528","SEMIMAJOR_AXIS":"6925.373","RA_OF_ASC_NODE":"147.5989","ELEMENT_SET_NO":"999"},{"REF_FRAME":"TEME","TLE_LINE2":"2 46753  53.0540 148.6366 0001346  78.6512 281.4628 15.06392544 72831","ARG_OF_PERICENTER":"78.6512","EPHEMERIS_TYPE":"0","PERIAPSIS":"546.304","REV_AT_EPOCH":"7283","APOAPSIS":"548.169","OBJECT_NAME":"STARLINK-1922","MEAN_ANOMALY":"281.4628","MEAN_MOTION_DDOT":"0.0000000000000","MEAN_MOTION_DOT":"-0.00003350","OBJECT_TYPE":"PAYLOAD","RCS_SIZE":"LARGE","LAUNCH_DATE":"2020-10-24","CENTER_NAME":"EARTH","TLE_LINE1":"1 46753U 20074Q   22044.55567887 -.00003350  00000-0 -20615-3 0  9991","MEAN_ELEMENT_THEORY":"SGP4","PERIOD":"95.593","SITE":"AFETR","OBJECT_ID":"2020-074Q","FILE":"3299685","COUNTRY_CODE":"US","MEAN_MOTION":"15.06392544","NORAD_CAT_ID":"46753","INCLINATION":"53.0540","ELEMENT_SET_NO":"999","SEMIMAJOR_AXIS":"6925.371","RA_OF_ASC_NODE":"148.6366","DECAY_DATE":null,"BSTAR":"-0.00020615000000","EPOCH":"2022-02-13T13:20:10.654368","ECCENTRICITY":"0.00013460","GP_ID":"195894170","TIME_SYSTEM":"UTC","CLASSIFICATION_TYPE":"U"},{"FILE":"3299685","NORAD_CAT_ID":"46754","COUNTRY_CODE":"US","MEAN_MOTION":"15.06375977","PERIOD":"95.594","SITE":"AFETR","OBJECT_ID":"2020-074R","LAUNCH_DATE":"2020-10-24","CENTER_NAME":"EARTH","TLE_LINE1":"1 46754U 20074R   22044.56305097  .00001599  00000-0  12632-3 0  9997","MEAN_ELEMENT_THEORY":"SGP4","RCS_SIZE":"LARGE","TIME_SYSTEM":"UTC","CLASSIFICATION_TYPE":"U","BSTAR":"0.00012632000000","EPOCH":"2022-02-13T13:30:47.603808","GP_ID":"195893431","ECCENTRICITY":"0.00013490","DECAY_DATE":null,"INCLINATION":"53.0533","SEMIMAJOR_AXIS":"6925.422","RA_OF_ASC_NODE":"148.6052","ELEMENT_SET_NO":"999","REV_AT_EPOCH":"7283","PERIAPSIS":"546.353","TLE_LINE2":"2 46754  53.0533 148.6052 0001349  75.4883 284.6255 15.06375977 72837","ARG_OF_PERICENTER":"75.4883","EPHEMERIS_TYPE":"0","REF_FRAME":"TEME","OBJECT_TYPE":"PAYLOAD","MEAN_ANOMALY":"284.6255","MEAN_MOTION_DDOT":"0.0000000000000","MEAN_MOTION_DOT":"0.00001599","OBJECT_NAME":"STARLINK-1923","APOAPSIS":"548.221"},{"DECAY_DATE":null,"SEMIMAJOR_AXIS":"6925.404","RA_OF_ASC_NODE":"153.5854","ELEMENT_SET_NO":"999","INCLINATION":"53.0529","TIME_SYSTEM":"UTC","CLASSIFICATION_TYPE":"U","GP_ID":"195893681","ECCENTRICITY":"0.00015120","BSTAR":"-0.00031310000000","EPOCH":"2022-02-13T13:38:05.933472","MEAN_ELEMENT_THEORY":"SGP4","TLE_LINE1":"1 46755U 20074S   22044.56812423 -.00004940  00000-0 -31310-3 0  9993","CENTER_NAME":"EARTH","LAUNCH_DATE":"2020-10-24","RCS_SIZE":"LARGE","NORAD_CAT_ID":"46755","COUNTRY_CODE":"US","MEAN_MOTION":"15.06381800","FILE":"3299685","SITE":"AFETR","OBJECT_ID":"2020-074S","PERIOD":"95.593","OBJECT_NAME":"STARLINK-1924","APOAPSIS":"548.316","OBJECT_TYPE":"PAYLOAD","MEAN_MOTION_DOT":"-0.00004940","MEAN_MOTION_DDOT":"0.0000000000000","MEAN_ANOMALY":"286.4698","ARG_OF_PERICENTER":"73.6457","EPHEMERIS_TYPE":"0","TLE_LINE2":"2 46755  53.0529 153.5854 0001512  73.6457 286.4698 15.06381800 72762","REF_FRAME":"TEME","PERIAPSIS":"546.222","REV_AT_EPOCH":"7276"},{"FILE":"3299685","COUNTRY_CODE":"US","MEAN_MOTION":"15.06387639","NORAD_CAT_ID":"46756","PERIOD":"95.593","SITE":"AFETR","OBJECT_ID":"2020-074T","CENTER_NAME":"EARTH","LAUNCH_DATE":"2020-10-24","MEAN_ELEMENT_THEORY":"SGP4","TLE_LINE1":"1 46756U 20074T   22044.55979767 -.00003563  00000-0 -22048-3 0  9996","RCS_SIZE":"LARGE","TIME_SYSTEM":"UTC","CLASSIFICATION_TYPE":"U","BSTAR":"-0.00022048000000","EPOCH":"2022-02-13T13:26:06.518688","ECCENTRICITY":"0.00014130","GP_ID":"195893920","DECAY_DATE":null,"INCLINATION":"53.0551","ELEMENT_SET_NO":"999","SEMIMAJOR_AXIS":"6925.386","RA_OF_ASC_NODE":"153.6268","PERIAPSIS":"546.273","REV_AT_EPOCH":"7276","TLE_LINE2":"2 46756  53.0551 153.6268 0001413  72.7971 287.3172 15.06387639 72762","ARG_OF_PERICENTER":"72.7971","EPHEMERIS_TYPE":"0","REF_FRAME":"TEME","OBJECT_TYPE":"PAYLOAD","MEAN_ANOMALY":"287.3172","MEAN_MOTION_DDOT":"0.0000000000000","MEAN_MOTION_DOT":"-0.00003563","OBJECT_NAME":"STARLINK-1925","APOAPSIS":"548.230"},{"OBJECT_NAME":"STARLINK-1926","APOAPSIS":"548.233","OBJECT_TYPE":"PAYLOAD","MEAN_ANOMALY":"294.5556","MEAN_MOTION_DDOT":"0.0000000000000","MEAN_MOTION_DOT":"-0.00005048","EPHEMERIS_TYPE":"0","ARG_OF_PERICENTER":"65.5579","TLE_LINE2":"2 46757  53.0541 153.5082 0001396  65.5579 294.5556 15.06382898 72767","REF_FRAME":"TEME","REV_AT_EPOCH":"7276","PERIAPSIS":"546.299","DECAY_DATE":null,"SEMIMAJOR_AXIS":"6925.401","RA_OF_ASC_NODE":"153.5082","ELEMENT_SET_NO":"999","INCLINATION":"53.0541","CLASSIFICATION_TYPE":"U","TIME_SYSTEM":"UTC","ECCENTRICITY":"0.00013960","GP_ID":"195894670","EPOCH":"2022-02-13T14:08:34.523808","BSTAR":"-0.00032040000000","TLE_LINE1":"1 46757U 20074U   22044.58928847 -.00005048  00000-0 -32040-3 0  9996","MEAN_ELEMENT_THEORY":"SGP4","LAUNCH_DATE":"2020-10-24","CENTER_NAME":"EARTH","RCS_SIZE":"LARGE","COUNTRY_CODE":"US","NORAD_CAT_ID":"46757","MEAN_MOTION":"15.06382898","FILE":"3299685","OBJECT_ID":"2020-074U","SITE":"AFETR","PERIOD":"95.593"},{"EPOCH":"2022-02-13T13:11:32.813376","BSTAR":"-0.00012448000000","GP_ID":"195892932","ECCENTRICITY":"0.00018990","CLASSIFICATION_TYPE":"U","TIME_SYSTEM":"UTC","INCLINATION":"53.0514","SEMIMAJOR_AXIS":"6925.425","ELEMENT_SET_NO":"999","RA_OF_ASC_NODE":"153.6766","DECAY_DATE":null,"PERIOD":"95.594","OBJECT_ID":"2020-074V","SITE":"AFETR","FILE":"3299685","COUNTRY_CODE":"US","MEAN_MOTION":"15.06375113","NORAD_CAT_ID":"46758","RCS_SIZE":"LARGE","CENTER_NAME":"EARTH","LAUNCH_DATE":"2020-10-24","TLE_LINE1":"1 46758U 20074V   22044.54968534 -.00002134  00000-0 -12448-3 0  9993","MEAN_ELEMENT_THEORY":"SGP4","MEAN_MOTION_DOT":"-0.00002134","MEAN_MOTION_DDOT":"0.0000000000000","MEAN_ANOMALY":"309.2057","OBJECT_TYPE":"PAYLOAD","APOAPSIS":"548.605","OBJECT_NAME":"STARLINK-1928","REV_AT_EPOCH":"7276","PERIAPSIS":"545.975","REF_FRAME":"TEME","TLE_LINE2":"2 46758  53.0514 153.6766 0001899  50.9100 309.2057 15.06375113 72766","EPHEMERIS_TYPE":"0","ARG_OF_PERICENTER":"50.9100"},{"TLE_LINE2":"2 46759  53.0541 162.7924 0001613  70.8536 289.2627 15.06398547 72386","ARG_OF_PERICENTER":"70.8536","EPHEMERIS_TYPE":"0","REF_FRAME":"TEME","PERIAPSIS":"546.101","REV_AT_EPOCH":"7238","OBJECT_NAME":"STARLINK-1833","APOAPSIS":"548.335","OBJECT_TYPE":"PAYLOAD","MEAN_MOTION_DDOT":"0.0000000000000","MEAN_MOTION_DOT":"-0.00000787","MEAN_ANOMALY":"289.2627","CENTER_NAME":"EARTH","LAUNCH_DATE":"2020-10-24","TLE_LINE1":"1 46759U 20074W   22044.74412056 -.00000787  00000-0 -33952-4 0  9995","MEAN_ELEMENT_THEORY":"SGP4","RCS_SIZE":"LARGE","FILE":"3299770","NORAD_CAT_ID":"46759","COUNTRY_CODE":"US","MEAN_MOTION":"15.06398547","PERIOD":"95.592","SITE":"AFETR","OBJECT_ID":"2020-074W","DECAY_DATE":null,"INCLINATION":"53.0541","SEMIMAJOR_AXIS":"6925.353","ELEMENT_SET_NO":"999","RA_OF_ASC_NODE":"162.7924","TIME_SYSTEM":"UTC","CLASSIFICATION_TYPE":"U","BSTAR":"-0.00003395200000","EPOCH":"2022-02-13T17:51:32.016384","GP_ID":"195899905","ECCENTRICITY":"0.00016130"},{"TLE_LINE2":"2 46760  53.0541 163.6338 0001359  63.7952 296.3177 15.06387248 72629","ARG_OF_PERICENTER":"63.7952","EPHEMERIS_TYPE":"0","REF_FRAME":"TEME","PERIAPSIS":"546.311","REV_AT_EPOCH":"7262","OBJECT_NAME":"STARLINK-1896","APOAPSIS":"548.194","OBJECT_TYPE":"PAYLOAD","MEAN_MOTION_DDOT":"0.0000000000000","MEAN_ANOMALY":"296.3177","MEAN_MOTION_DOT":"-0.00000356","LAUNCH_DATE":"2020-10-24","CENTER_NAME":"EARTH","MEAN_ELEMENT_THEORY":"SGP4","TLE_LINE1":"1 46760U 20074X   22044.55613692 -.00000356  00000-0 -49982-5 0  9998","RCS_SIZE":"LARGE","FILE":"3299685","COUNTRY_CODE":"US","MEAN_MOTION":"15.06387248","NORAD_CAT_ID":"46760","PERIOD":"95.593","SITE":"AFETR","OBJECT_ID":"2020-074X","DECAY_DATE":null,"INCLINATION":"53.0541","SEMIMAJOR_AXIS":"6925.388","ELEMENT_SET_NO":"999","RA_OF_ASC_NODE":"163.6338","TIME_SYSTEM":"UTC","CLASSIFICATION_TYPE":"U","BSTAR":"-0.00000499820000","EPOCH":"2022-02-13T13:20:50.229888","ECCENTRICITY":"0.00013590","GP_ID":"195894420"},{"RCS_SIZE":"LARGE","MEAN_ELEMENT_THEORY":"SGP4","TLE_LINE1":"1 46763U 20074AA  22044.57996720 -.00007657  00000-0 -16659-3 0  9993","CENTER_NAME":"EARTH","LAUNCH_DATE":"2020-10-24","OBJECT_ID":"2020-074AA","SITE":"AFETR","PERIOD":"93.375","COUNTRY_CODE":"US","MEAN_MOTION":"15.42165193","NORAD_CAT_ID":"46763","FILE":"3299685","SEMIMAJOR_AXIS":"6817.857","ELEMENT_SET_NO":"999","RA_OF_ASC_NODE":"156.6086","INCLINATION":"53.0534","DECAY_DATE":null,"GP_ID":"195894171","ECCENTRICITY":"0.00022810","EPOCH":"2022-02-13T13:55:09.166080","BSTAR":"-0.00016659000000","CLASSIFICATION_TYPE":"U","TIME_SYSTEM":"UTC","REF_FRAME":"TEME","EPHEMERIS_TYPE":"0","ARG_OF_PERICENTER":"25.8060","TLE_LINE2":"2 46763  53.0534 156.6086 0002281  25.8060 334.3058 15.42165193 72725","REV_AT_EPOCH":"7272","PERIAPSIS":"438.167","APOAPSIS":"441.278","OBJECT_NAME":"STARLINK-1902","MEAN_ANOMALY":"334.3058","MEAN_MOTION_DDOT":"0.0000000000000","MEAN_MOTION_DOT":"-0.00007657","OBJECT_TYPE":"PAYLOAD"}];
